{
  "type": "FeatureCollection",
  "features": [
    {
      "type": "Feature",
      "properties": {
        "norad_id": 35605,
        "name": "COSMOS 2251 DEB",
        "group": "cosmos-2251-debris",
        "lat": 41.10136878579472,
        "lon": -27.35443733510763,
        "alt_km": 465.14734079953814,
        "timestamp": "2025-12-21T07:34:34.910691+00:00",
        "meta_object_name": "COSMOS 2251 DEB",
        "meta_object_id": "1993-036AMY",
        "meta_epoch": "2025-12-16T05:30:02.725344",
        "meta_mean_motion": 15.35586787,
        "meta_eccentricity": 0.00242235,
        "meta_inclination": 73.8701,
        "meta_ra_of_asc_node": 329.0606,
        "meta_arg_of_pericenter": 257.5437,
        "meta_mean_anomaly": 102.3057,
        "meta_ephemeris_type": 0,
        "meta_classification_type": "U",
        "meta_norad_cat_id": 35605,
        "meta_element_set_no": 999,
        "meta_rev_at_epoch": 66025,
        "meta_bstar": 0.0050760725,
        "meta_mean_motion_dot": 0.00181517,
        "meta_mean_motion_ddot": 0,
        "tle_line1": "1 35605U 93036AMY 25350.22919821  .00181517  00000+0  50761-2 0  9992",
        "tle_line2": "2 35605  73.8701 329.0606 0024223 257.5437 102.3057 15.35586787660251"
      },
      "geometry": {
        "type": "Point",
        "coordinates": [
          -27.35443733510763,
          41.10136878579472
        ]
      }
    },
    {
      "type": "Feature",
      "properties": {
        "norad_id": 35606,
        "name": "COSMOS 2251 DEB",
        "group": "cosmos-2251-debris",
        "lat": -14.683048414146329,
        "lon": -178.50631389963766,
        "alt_km": 768.8626169669642,
        "timestamp": "2025-12-21T07:34:34.910700+00:00",
        "meta_object_name": "COSMOS 2251 DEB",
        "meta_object_id": "1993-036AMZ",
        "meta_epoch": "2025-12-20T07:19:19.357824",
        "meta_mean_motion": 13.41217944,
        "meta_eccentricity": 0.04570022,
        "meta_inclination": 73.8103,
        "meta_ra_of_asc_node": 358.7381,
        "meta_arg_of_pericenter": 203.3475,
        "meta_mean_anomaly": 154.6278,
        "meta_ephemeris_type": 0,
        "meta_classification_type": "U",
        "meta_norad_cat_id": 35606,
        "meta_element_set_no": 999,
        "meta_rev_at_epoch": 61141,
        "meta_bstar": 0.00023847714,
        "meta_mean_motion_dot": 2.22e-06,
        "meta_mean_motion_ddot": 0,
        "tle_line1": "1 35606U 93036AMZ 25354.30508516  .00000222  00000+0  23848-3 0  9991",
        "tle_line2": "2 35606  73.8103 358.7381 0457002 203.3475 154.6278 13.41217944611413"
      },
      "geometry": {
        "type": "Point",
        "coordinates": [
          -178.50631389963766,
          -14.683048414146329
        ]
      }
    },
    {
      "type": "Feature",
      "properties": {
        "norad_id": 35611,
        "name": "COSMOS 2251 DEB",
        "group": "cosmos-2251-debris",
        "lat": 59.55222787012107,
        "lon": -168.24085050707367,
        "alt_km": 660.0294239702971,
        "timestamp": "2025-12-21T07:34:34.910710+00:00",
        "meta_object_name": "COSMOS 2251 DEB",
        "meta_object_id": "1993-036ANE",
        "meta_epoch": "2025-12-19T11:16:40.848672",
        "meta_mean_motion": 14.73020971,
        "meta_eccentricity": 0.0021353,
        "meta_inclination": 74.0189,
        "meta_ra_of_asc_node": 166.1787,
        "meta_arg_of_pericenter": 238.9125,
        "meta_mean_anomaly": 120.9952,
        "meta_ephemeris_type": 0,
        "meta_classification_type": "U",
        "meta_norad_cat_id": 35611,
        "meta_element_set_no": 999,
        "meta_rev_at_epoch": 87389,
        "meta_bstar": 0.0015718,
        "meta_mean_motion_dot": 0.0001012,
        "meta_mean_motion_ddot": 0,
        "tle_line1": "1 35611U 93036ANE 25353.46991723  .00010120  00000+0  15718-2 0  9993",
        "tle_line2": "2 35611  74.0189 166.1787 0021353 238.9125 120.9952 14.73020971873894"
      },
      "geometry": {
        "type": "Point",
        "coordinates": [
          -168.24085050707367,
          59.55222787012107
        ]
      }
    },
    {
      "type": "Feature",
      "properties": {
        "norad_id": 35614,
        "name": "COSMOS 2251 DEB",
        "group": "cosmos-2251-debris",
        "lat": 0.8262285640774802,
        "lon": -48.930050688298536,
        "alt_km": 723.3912262668746,
        "timestamp": "2025-12-21T07:34:34.910718+00:00",
        "meta_object_name": "COSMOS 2251 DEB",
        "meta_object_id": "1993-036ANH",
        "meta_epoch": "2025-12-20T05:23:12.984576",
        "meta_mean_motion": 14.67071987,
        "meta_eccentricity": 0.0075237,
        "meta_inclination": 73.9589,
        "meta_ra_of_asc_node": 312.9473,
        "meta_arg_of_pericenter": 165.4897,
        "meta_mean_anomaly": 194.8458,
        "meta_ephemeris_type": 0,
        "meta_classification_type": "U",
        "meta_norad_cat_id": 35614,
        "meta_element_set_no": 999,
        "meta_rev_at_epoch": 87839,
        "meta_bstar": 0.00049341,
        "meta_mean_motion_dot": 2.857e-05,
        "meta_mean_motion_ddot": 0,
        "tle_line1": "1 35614U 93036ANH 25354.22445584  .00002857  00000+0  49341-3 0  9998",
        "tle_line2": "2 35614  73.9589 312.9473 0075237 165.4897 194.8458 14.67071987878399"
      },
      "geometry": {
        "type": "Point",
        "coordinates": [
          -48.930050688298536,
          0.8262285640774802
        ]
      }
    },
    {
      "type": "Feature",
      "properties": {
        "norad_id": 35645,
        "name": "COSMOS 2251 DEB",
        "group": "cosmos-2251-debris",
        "lat": 38.18791625346583,
        "lon": -121.40550089197895,
        "alt_km": 734.9360902458566,
        "timestamp": "2025-12-21T07:34:34.910728+00:00",
        "meta_object_name": "COSMOS 2251 DEB",
        "meta_object_id": "1993-036ANL",
        "meta_epoch": "2025-12-20T22:37:16.438368",
        "meta_mean_motion": 14.45688702,
        "meta_eccentricity": 0.0069769,
        "meta_inclination": 73.9649,
        "meta_ra_of_asc_node": 72.3676,
        "meta_arg_of_pericenter": 229.1797,
        "meta_mean_anomaly": 130.3298,
        "meta_ephemeris_type": 0,
        "meta_classification_type": "U",
        "meta_norad_cat_id": 35645,
        "meta_element_set_no": 999,
        "meta_rev_at_epoch": 86890,
        "meta_bstar": 0.0012661699,
        "meta_mean_motion_dot": 4.592e-05,
        "meta_mean_motion_ddot": 0,
        "tle_line1": "1 35645U 93036ANL 25354.94255137  .00004592  00000+0  12662-2 0  9997",
        "tle_line2": "2 35645  73.9649  72.3676 0069769 229.1797 130.3298 14.45688702868900"
      },
      "geometry": {
        "type": "Point",
        "coordinates": [
          -121.40550089197895,
          38.18791625346583
        ]
      }
    },
    {
      "type": "Feature",
      "properties": {
        "norad_id": 35646,
        "name": "COSMOS 2251 DEB",
        "group": "cosmos-2251-debris",
        "lat": 60.91361805180557,
        "lon": 73.76278534855273,
        "alt_km": 1058.5736331659627,
        "timestamp": "2025-12-21T07:34:34.910736+00:00",
        "meta_object_name": "COSMOS 2251 DEB",
        "meta_object_id": "1993-036ANM",
        "meta_epoch": "2025-12-20T21:21:16.108128",
        "meta_mean_motion": 13.40831039,
        "meta_eccentricity": 0.04561939,
        "meta_inclination": 73.8716,
        "meta_ra_of_asc_node": 43.0968,
        "meta_arg_of_pericenter": 151.9118,
        "meta_mean_anomaly": 23.6706,
        "meta_ephemeris_type": 0,
        "meta_classification_type": "U",
        "meta_norad_cat_id": 35646,
        "meta_element_set_no": 999,
        "meta_rev_at_epoch": 81967,
        "meta_bstar": 0.00033730604,
        "meta_mean_motion_dot": 3.24e-06,
        "meta_mean_motion_ddot": 0,
        "tle_line1": "1 35646U 93036ANM 25354.88976977  .00000324  00000+0  33731-3 0  9993",
        "tle_line2": "2 35646  73.8716  43.0968 0456193 151.9118  23.6706 13.40831039819679"
      },
      "geometry": {
        "type": "Point",
        "coordinates": [
          73.76278534855273,
          60.91361805180557
        ]
      }
    },
    {
      "type": "Feature",
      "properties": {
        "norad_id": 35647,
        "name": "COSMOS 2251 DEB",
        "group": "cosmos-2251-debris",
        "lat": 27.859485413987418,
        "lon": 89.90244750024642,
        "alt_km": 767.9759565107715,
        "timestamp": "2025-12-21T07:34:34.910745+00:00",
        "meta_object_name": "COSMOS 2251 DEB",
        "meta_object_id": "1993-036ANN",
        "meta_epoch": "2025-12-20T12:35:18.566880",
        "meta_mean_motion": 14.43670529,
        "meta_eccentricity": 0.0045979,
        "meta_inclination": 74.0241,
        "meta_ra_of_asc_node": 280.0829,
        "meta_arg_of_pericenter": 17.3675,
        "meta_mean_anomaly": 342.9041,
        "meta_ephemeris_type": 0,
        "meta_classification_type": "U",
        "meta_norad_cat_id": 35647,
        "meta_element_set_no": 999,
        "meta_rev_at_epoch": 67776,
        "meta_bstar": 0.00050731,
        "meta_mean_motion_dot": 1.718e-05,
        "meta_mean_motion_ddot": 0,
        "tle_line1": "1 35647U 93036ANN 25354.52452045  .00001718  00000+0  50731-3 0  9997",
        "tle_line2": "2 35647  74.0241 280.0829 0045979  17.3675 342.9041 14.43670529677764"
      },
      "geometry": {
        "type": "Point",
        "coordinates": [
          89.90244750024642,
          27.859485413987418
        ]
      }
    }
  ]
}